K10JL0G  8.8   0.15 K194R 338.25178  169.90775  131.49223   26.95182  0.4641548  0.00541926  32.1003283  0 E2019-H13    61   9 2010-2018 0.12 M-v 38h MPCW       000A          2010 JG210         20180705
K10JL0H  7.3   0.15 K194R 321.43795  162.93308  129.26242   12.23547  0.2449669  0.00393327  39.7466378  1 E2019-H13   110   9 2010-2018 0.19 M-v 38h MPCW       000E          2010 JH210         20180713
K10JL0J  7.0   0.15 K194R  23.01911  101.30159  215.82572    7.18069  0.2518721  0.00283571  49.4342528  1 E2019-HB4   121   9 2010-2018 0.17 M-v 38h MPCLINUX   0011          2010 JJ210         20180821
K10K39Z  4.0   0.15 K194R 261.92626  310.89088   53.11335   26.02658  0.0529635  0.00320704  45.5406829  5 MPO232585    28   3 2010-2012 0.22 M-v 38h MPCADO     0010          2010 KZ39          20120320
K10L33O  8.5   0.15 K194R 339.34473   80.82289  241.08111   17.83833  0.3198402  0.00887666  23.1012869  1 MPO456721    76   5 2010-2014 0.22 M-v 38h MPCLINUX   040A          2010 LO33          20140822
K10L68P  9.1   0.15 K194R  49.09056  309.73057  262.18518   10.72075  0.0353912  0.00445300  36.5904366  6 MPO200860    32   2 2010-2011 0.25 M-v 38h MPCW       000A          2010 LP68          20110604
K10L68Q  7.6   0.15 K194R 325.63643   10.34682  306.33122    3.19122  0.2299003  0.00321780  45.4391414  5 MPO200860    74   2 2010-2011 0.26 M-v 38h MPCW       0010          2010 LQ68          20110604
K10LD6B  6.4   0.15 K194R   1.46969  158.63780  132.50705   14.06308  0.2689831  0.00394515  39.6668209  1 MPO456730    45   7 2010-2018 0.09 M-v 38h MPCLINUX   040E          2010 LB136         20180521
K10MB6Q  5.4   0.15 K194R 234.95670  166.79410    5.16720   30.82768  0.1779405  0.00362729  41.9515692  2 E2018-Y78    72   8 2010-2018 0.18 M-v 38h MPCLINUX   0410          2010 MQ116         20180101
K10MB6R  6.6   0.15 K194R  17.95514  353.56947  351.73768   19.55602  0.3990496  0.00197901  62.8306052  1 MPO428284    49   9 2000-2013 0.17 M-v 38h MPCLINUX   0411          2010 MR116         20130915
K10NE6F  6.4   0.15 K194R 320.21122  159.97760   65.36625    2.82197  0.0074045  0.00344037  43.4575843  2 E2019-H13   131   9 2010-2018 0.20 M-v 38h MPCW       0410          2010 NF146         20180413
K10NE6G  9.0   0.15 K194R 138.25245  223.54521  322.14115    8.37834  0.1230287  0.01100501  20.0174602  1 E2019-H13   150  10 2009-2018 0.16 M-v 38h MPCW       040A          2010 NG146         20180808
K10OF3E  5.4   0.15 K194R  16.26907  131.69719  134.67767   33.21363  0.3899793  0.00221509  58.2829439  1 E2019-H13   155  10 2009-2018 0.17 M-v 38h MPCW       0411          2010 OE153         20180811
K10P66T  5.9   0.15 K194R  15.69169  203.34103  108.67358   18.42526  0.4345513  0.00198526  62.6986735  1 MPO456774    95   8 2010-2017 0.23 M-v 38h MPCLINUX   0411          2010 PT66          20170921
K10P75U  6.0   0.15 K194R 356.31291  256.13821   78.18920    8.88293  0.5841777  0.00122747  86.3899243  1 MPO456774   143   8 2010-2017 0.26 M-v 38h MPCW       0411          2010 PU75          20171102
K10P81P  6.8   0.15 K194R   1.55472  173.35273  172.20923   30.77460  0.2834405  0.00257707  52.6888305  1 E2019-H13   289   8 2010-2018 0.16 M-v 38h MPCW       0011          2010 PP81          20180817
K10P88C  7.9   0.15 K194R 116.36061  138.88218  131.53537   18.02024  0.0539856  0.00753353  25.7713327  1 E2019-H13   105   8 2010-2017 0.17 M-v 38h MPCW       040A          2010 PC88          20171214
K10Q07Q  6.0   0.15 K194R   8.01267  215.20944   75.96005   18.17356  0.6920569  0.00079898 115.0214055  0 E2019-H13    95   9 2010-2018 0.16 M-v 38h MPCW       0411          2010 QQ7           20180807
K10R43F  3.9   0.15 K194R  96.89022  192.98269   25.24757   30.67667  0.2473081  0.00282432  49.5670944  2 MPO456774   110   8 2010-2017 0.23 M-v 38h MPCLINUX   0411          2010 RF43          20171010
K10R64F  5.7   0.15 K194R  26.23030  208.90781  130.93594   28.67277  0.1744569  0.00349896  42.9710950  1 MPO456775   128   9 2002-2017 0.37 M-v 38h MPCLINUX   0410          2010 RF64          20171208
K10R64N  5.5   0.15 K194R 276.43991   40.85403   68.40305   19.90443  0.0811159  0.00377603  40.8425287  2 MPO456775    90   8 2010-2018 0.25 M-v 38h MPCLINUX   040A          2010 RN64          20180115
K10RI8D  6.0   0.15 K194R 314.44009  354.66794   65.04405   27.99204  0.0565674  0.00383743  40.4056524  1 E2018-X68    62   7 2010-2017 0.14 M-v 38h MPCLINUX   040E          2010 RD188         20171208
K10RI8F  5.2   0.15 K194R 246.50775  333.27517  178.30618   13.85853  0.2934601  0.00309080  46.6755158  2 E2018-Y78   111  12 2001-2017 0.19 M-v 38h MPCLINUX   040A          2010 RF188         20171119
K10RJ0J  6.8   0.15 K194R 332.25519  291.72647   86.15908    2.98983  0.0755234  0.00332362  44.4694726  2 E2019-H13   102   9 2010-2018 0.15 M-v 38h MPCW       0010          2010 RJ190         20180818
K10RJ0K  6.1   0.15 K194R 179.58117  214.87015  340.17379    6.62678  0.1954647  0.00398104  39.4280018  3 E2019-H13   109  10 2009-2018 0.22 M-v 38h MPCW       000E          2010 RK190         20180814
K10S41B  8.1   0.15 K194R   1.16249  248.42590  139.51770    5.22279  0.2785789  0.00398822  39.3807096  0 E2019-HB4   195  10 2008-2019 0.20 M-v 38h MPCLINUX   000E          2010 SB41          20190101
K10T00H  9.4   0.15 K194R  68.26209  209.78329  123.61841   26.73395  0.3234103  0.01239361  18.4928679  0 MPO456777   176  11 2001-2018 0.18 M-v 38h MPCLINUX   000A          2010 TH            20180113
K10T00J  5.7   0.15 K194R  13.50767  273.59935   91.17276   38.95248  0.3640134  0.00198523  62.6993201  1 E2019-HB4    97   8 2010-2018 0.21 M-v 38h MPCLINUX   000A          2010 TJ            20180109
K10TI2J  8.5   0.15 K194R 358.33977  170.23068  232.61341    9.52216  0.2731967  0.00396966  39.5033484  1 MPO434948   123   7 2008-2015 0.11 M-v 38h MPCLINUX   040E          2010 TJ182         20151207
K10TI2L  6.4   0.15 K194R 350.68349  285.89921  114.45095    1.60779  0.0555058  0.00341243  43.6945032  2 MPO428286    32   6 2001-2013 0.21 M-v 38h MPCLINUX   0410          2010 TL182         20131027
K10TI2M  7.0   0.15 K194R 334.88796   30.98527   44.82006    5.62788  0.1634105  0.00400048  39.3001868  1 E2018-Y78   165  11 2001-2018 0.16 M-v 38h MPCLINUX   040E          2010 TM182         20180112
K10TI2N  6.9   0.15 K194R  69.66773  281.59418   27.45337   13.31766  0.1468693  0.00396679  39.5223877  1 MPO428286    57   8 2002-2013 0.15 M-v 38h MPCLINUX   040E          2010 TN182         20131125
K10TI2P  6.6   0.15 K194R 333.00895  233.09224  209.96902    9.73185  0.1749692  0.00327376  44.9198812  1 E2018-Y78   137  10 2008-2018 0.24 M-v 38h MPCLINUX   0410          2010 TP182         20180130
K10TJ1S  8.1   0.15 K194R 347.97200  299.30881  129.52436    6.56647  0.0422754  0.00602992  29.8947691  1 E2019-H13   153  11 2000-2018 0.16 M-v 38h MPCLINUX   000A          2010 TS191         20180113
K10TJ1T  7.8   0.15 K194R 171.77388    7.75413  249.29146    4.29191  0.0742152  0.00600580  29.9747365  2 MPO428286    21   6 1999-2015 0.22 M-v 38h MPCLINUX   000A          2010 TT191         20151119
K10TJ1U 10.8   0.15 K194R  25.70435  344.54236   60.85158    1.81600  0.2844817  0.01052935  20.6158736  0 E2018-Y78    64   9 2008-2018 0.13 M-v 38h MPCLINUX   000A          2010 TU191         20180914
K10TJ1V  8.2   0.15 K194R 191.02793   41.58261  200.56943   11.52321  0.1350374  0.00804125  24.6748023  2 E2018-X68    86   8 2010-2017 0.19 M-v 38h MPCLINUX   000A          2010 TV191         20171224
K10TJ2A  6.3   0.15 K194R 127.12439   29.90191  230.09407   18.03804  0.1122536  0.00363307  41.9070053  2 MPO428286    19   5 1999-2013 0.13 M-v 38h MPCLINUX   0410          2010 TA192         20131005
K10TJ2B  6.4   0.15 K194R  25.92438  108.43101  243.57211   13.05413  0.3188090  0.00245770  54.3814045  1 E2018-Y78    57   9 2008-2018 0.19 M-v 38h MPCLINUX   0411          2010 TB192         20180108
K10TJ2D  6.5   0.15 K194R  36.04742  302.74739   76.85257    4.32681  0.0227112  0.00350045  42.9589309  4 MPO384210    15   4 2010-2013 0.13 M-v 38h MPCW       0410          2010 TD192         20131124
K10TJ2E  6.4   0.15 K194R 102.54449  282.27210   29.73100   21.30640  0.0572683  0.00374393  41.0756475  3 MPO428286    19   5 1999-2013 0.13 M-v 38h MPCLINUX   0410          2010 TE192         20131030
K10TJ2F  6.1   0.15 K194R 257.84383   86.62077   78.05063    2.31762  0.0215071  0.00347792  43.1442789  3 MPO384210    22   4 2010-2013 0.15 M-v 38h MPCW       0410          2010 TF192         20131124
K10TJ2G  6.6   0.15 K194R  57.48280   28.97245  334.26982    1.32130  0.0564196  0.00340453  43.7621080  2 MPO428286    19   5 2004-2013 0.12 M-v 38h MPCLINUX   0410          2010 TG192         20131203
K10TJ2K  6.6   0.15 K194R 346.77466   20.28584   24.88768   36.65952  0.1123103  0.00313305  46.2548613  1 E2019-H13    63   8 2000-2017 0.23 M-v 38h MPCLINUX   0410          2010 TK192         20171110
K10TJ5R  7.8   0.15 K194R 337.56294  235.46201  199.55973   17.61548  0.2592115  0.00400042  39.3005739  1 E2019-H13   117   8 2010-2018 0.19 M-v 38h MPCW       040E          2010 TR195         20180203
K10TJ5S  7.4   0.15 K194R   6.84904  219.13296  182.13323   15.51166  0.1212532  0.00400187  39.2910994  2 E2019-H13    75   7 2010-2018 0.28 M-v 38h MPCW       040E          2010 TS195         20180105
K10TJ5T  6.1   0.15 K194R 270.58694  100.28246   58.34730   15.61886  0.0729634  0.00346939  43.2149526  2 E2019-H13    95   8 2010-2018 0.17 M-v 38h MPCW       0410          2010 TT195         20180203
K10UB0U  8.6   0.15 K194R  83.57022    9.78717   15.65401   26.76296  0.2326498  0.00928365  22.4210964  1 E2019-H13   116   8 2010-2018 0.18 M-v 38h MPCW       000A          2010 UU110         20180123
K10V11Q  5.6   0.15 K194R  39.92911  213.18699  174.75834   13.30697  0.1362785  0.00327296  44.9271248  1 MPO456782   125   8 2002-2017 0.22 M-v 38h MPCLINUX   0010          2010 VQ11          20170214
